0 CZ-2D DEB
1 35275U 08056E   13283.80383284  .00001033  00000-0  43500-3 0  4654
2 35275 098.5982 260.4904 0145949 064.7680 051.8916 14.22188127249699
0 CZ-2D DEB
1 35275U 08056E   13286.18407557  .00001057  00000-0  44466-3 0  4667
2 35275 098.5984 262.8125 0145868 057.9098 358.4017 14.22193096250038
0 CZ-2D DEB
1 35275U 08056E   13289.13986260  .00001441  00000-0  60020-3 0  4670
2 35275 098.5991 265.6960 0145756 049.3888 011.6985 14.22203203250452
0 CZ-2D DEB
1 35275U 08056E   13291.17919248  .00001394  00000-0  58128-3 0  4683
2 35275 098.5997 267.6856 0145651 043.5051 012.9043 14.22209202250742
0 CZ-2D DEB
1 35275U 08056E   13293.79406490  .00001817  00000-0  75212-3 0  4697
2 35275 098.6002 270.2370 0145530 035.9610 080.9173 14.22216577251117
0 CZ-2D DEB
1 35275U 08056E   13296.17430676  .00001878  00000-0  77709-3 0  4707
2 35275 098.6003 272.5599 0145374 029.0863 027.7058 14.22226919251455
